{
  "type": "FeatureCollection",
  "features": [
    {
      "type": "Feature",
      "properties": {
        "norad_id": 36371,
        "name": "COSMOS 2251 DEB",
        "group": "cosmos-2251-debris",
        "lat": -10.46222266163504,
        "lon": -14.617297512028847,
        "alt_km": 655.9118492871221,
        "timestamp": "2025-12-12T07:43:20.913090+00:00",
        "meta_object_name": "COSMOS 2251 DEB",
        "meta_object_id": "1993-036AYY",
        "meta_epoch": "2025-12-07T19:05:47.723136",
        "meta_mean_motion": 14.70448722,
        "meta_eccentricity": 0.00102244,
        "meta_inclination": 74.0118,
        "meta_ra_of_asc_node": 171.1395,
        "meta_arg_of_pericenter": 209.6534,
        "meta_mean_anomaly": 150.4058,
        "meta_ephemeris_type": 0,
        "meta_classification_type": "U",
        "meta_norad_cat_id": 36371,
        "meta_element_set_no": 999,
        "meta_rev_at_epoch": 71372,
        "meta_bstar": 0.0029870702,
        "meta_mean_motion_dot": 0.00018131,
        "meta_mean_motion_ddot": 0,
        "tle_line1": "1 36371U 93036AYY 25341.79569124  .00018131  00000+0  29871-2 0  9991",
        "tle_line2": "2 36371  74.0118 171.1395 0010224 209.6534 150.4058 14.70448722713720"
      },
      "geometry": {
        "type": "Point",
        "coordinates": [
          -14.617297512028847,
          -10.46222266163504
        ]
      }
    },
    {
      "type": "Feature",
      "properties": {
        "norad_id": 36379,
        "name": "COSMOS 2251 DEB",
        "group": "cosmos-2251-debris",
        "lat": 42.44581907151749,
        "lon": -37.203714496450864,
        "alt_km": 740.6485409987808,
        "timestamp": "2025-12-12T07:43:20.913100+00:00",
        "meta_object_name": "COSMOS 2251 DEB",
        "meta_object_id": "1993-036AZG",
        "meta_epoch": "2025-12-08T04:58:44.675328",
        "meta_mean_motion": 14.36066652,
        "meta_eccentricity": 0.00445661,
        "meta_inclination": 74.0122,
        "meta_ra_of_asc_node": 315.1569,
        "meta_arg_of_pericenter": 85.444,
        "meta_mean_anomaly": 297.6264,
        "meta_ephemeris_type": 0,
        "meta_classification_type": "U",
        "meta_norad_cat_id": 36379,
        "meta_element_set_no": 999,
        "meta_rev_at_epoch": 64763,
        "meta_bstar": 0.0005365522,
        "meta_mean_motion_dot": 1.553e-05,
        "meta_mean_motion_ddot": 0,
        "tle_line1": "1 36379U 93036AZG 25342.20746152  .00001553  00000+0  53655-3 0  9992",
        "tle_line2": "2 36379  74.0122 315.1569 0044566  85.4440 297.6264 14.36066652647637"
      },
      "geometry": {
        "type": "Point",
        "coordinates": [
          -37.203714496450864,
          42.44581907151749
        ]
      }
    },
    {
      "type": "Feature",
      "properties": {
        "norad_id": 36385,
        "name": "COSMOS 2251 DEB",
        "group": "cosmos-2251-debris",
        "lat": -55.95403968500369,
        "lon": 130.17277565104877,
        "alt_km": 572.6966420203698,
        "timestamp": "2025-12-12T07:43:20.913112+00:00",
        "meta_object_name": "COSMOS 2251 DEB",
        "meta_object_id": "1993-036AZN",
        "meta_epoch": "2025-12-11T10:47:20.100480",
        "meta_mean_motion": 14.72531354,
        "meta_eccentricity": 0.01412648,
        "meta_inclination": 73.9695,
        "meta_ra_of_asc_node": 157.0611,
        "meta_arg_of_pericenter": 331.7559,
        "meta_mean_anomaly": 27.6,
        "meta_ephemeris_type": 0,
        "meta_classification_type": "U",
        "meta_norad_cat_id": 36385,
        "meta_element_set_no": 999,
        "meta_rev_at_epoch": 85083,
        "meta_bstar": 0.0024868113,
        "meta_mean_motion_dot": 0.00018523,
        "meta_mean_motion_ddot": 0,
        "tle_line1": "1 36385U 93036AZN 25345.44953820  .00018523  00000+0  24868-2 0  9998",
        "tle_line2": "2 36385  73.9695 157.0611 0141264 331.7559  27.6000 14.72531354850832"
      },
      "geometry": {
        "type": "Point",
        "coordinates": [
          130.17277565104877,
          -55.95403968500369
        ]
      }
    },
    {
      "type": "Feature",
      "properties": {
        "norad_id": 36420,
        "name": "COSMOS 2251 DEB",
        "group": "cosmos-2251-debris",
        "lat": -69.66123817996603,
        "lon": -134.29789891724474,
        "alt_km": 773.7217506365068,
        "timestamp": "2025-12-12T07:43:20.913122+00:00",
        "meta_object_name": "COSMOS 2251 DEB",
        "meta_object_id": "1993-036AZT",
        "meta_epoch": "2025-12-09T05:12:09.080064",
        "meta_mean_motion": 14.36895704,
        "meta_eccentricity": 0.001793,
        "meta_inclination": 74.0374,
        "meta_ra_of_asc_node": 281.9559,
        "meta_arg_of_pericenter": 10.5601,
        "meta_mean_anomaly": 57.255,
        "meta_ephemeris_type": 0,
        "meta_classification_type": "U",
        "meta_norad_cat_id": 36420,
        "meta_element_set_no": 999,
        "meta_rev_at_epoch": 84986,
        "meta_bstar": 0.00029505,
        "meta_mean_motion_dot": 8.48e-06,
        "meta_mean_motion_ddot": 0,
        "tle_line1": "1 36420U 93036AZT 25343.21677176  .00000848  00000+0  29505-3 0  9993",
        "tle_line2": "2 36420  74.0374 281.9559 0017930  10.5601  57.2550 14.36895704849860"
      },
      "geometry": {
        "type": "Point",
        "coordinates": [
          -134.29789891724474,
          -69.66123817996603
        ]
      }
    },
    {
      "type": "Feature",
      "properties": {
        "norad_id": 36430,
        "name": "COSMOS 2251 DEB",
        "group": "cosmos-2251-debris",
        "lat": -39.808806556654325,
        "lon": 95.45788530485771,
        "alt_km": 768.8225663838512,
        "timestamp": "2025-12-12T07:43:20.913133+00:00",
        "meta_object_name": "COSMOS 2251 DEB",
        "meta_object_id": "1993-036BAD",
        "meta_epoch": "2025-12-07T15:14:59.696160",
        "meta_mean_motion": 14.27773173,
        "meta_eccentricity": 0.00973352,
        "meta_inclination": 74.0036,
        "meta_ra_of_asc_node": 117.7938,
        "meta_arg_of_pericenter": 268.8676,
        "meta_mean_anomaly": 90.1319,
        "meta_ephemeris_type": 0,
        "meta_classification_type": "U",
        "meta_norad_cat_id": 36430,
        "meta_element_set_no": 999,
        "meta_rev_at_epoch": 64484,
        "meta_bstar": 0.00083938099,
        "meta_mean_motion_dot": 2.154e-05,
        "meta_mean_motion_ddot": 0,
        "tle_line1": "1 36430U 93036BAD 25341.63541315  .00002154  00000+0  83938-3 0  9995",
        "tle_line2": "2 36430  74.0036 117.7938 0097335 268.8676  90.1319 14.27773173644845"
      },
      "geometry": {
        "type": "Point",
        "coordinates": [
          95.45788530485771,
          -39.808806556654325
        ]
      }
    },
    {
      "type": "Feature",
      "properties": {
        "norad_id": 36437,
        "name": "COSMOS 2251 DEB",
        "group": "cosmos-2251-debris",
        "lat": -70.2175113533835,
        "lon": -91.97633449767564,
        "alt_km": 649.6938973667457,
        "timestamp": "2025-12-12T07:43:20.913143+00:00",
        "meta_object_name": "COSMOS 2251 DEB",
        "meta_object_id": "1993-036BAL",
        "meta_epoch": "2025-12-08T11:07:20.893728",
        "meta_mean_motion": 14.70572435,
        "meta_eccentricity": 0.00231803,
        "meta_inclination": 73.9425,
        "meta_ra_of_asc_node": 42.3459,
        "meta_arg_of_pericenter": 273.747,
        "meta_mean_anomaly": 86.105,
        "meta_ephemeris_type": 0,
        "meta_classification_type": "U",
        "meta_norad_cat_id": 36437,
        "meta_element_set_no": 999,
        "meta_rev_at_epoch": 65988,
        "meta_bstar": 0.0019147355,
        "meta_mean_motion_dot": 0.0001167,
        "meta_mean_motion_ddot": 0,
        "tle_line1": "1 36437U 93036BAL 25342.46343627  .00011670  00000+0  19147-2 0  9993",
        "tle_line2": "2 36437  73.9425  42.3459 0023180 273.7470  86.1050 14.70572435659880"
      },
      "geometry": {
        "type": "Point",
        "coordinates": [
          -91.97633449767564,
          -70.2175113533835
        ]
      }
    },
    {
      "type": "Feature",
      "properties": {
        "norad_id": 36439,
        "name": "COSMOS 2251 DEB",
        "group": "cosmos-2251-debris",
        "lat": 10.76823628557957,
        "lon": 40.51798520492436,
        "alt_km": 762.5049465378679,
        "timestamp": "2025-12-12T07:43:20.913153+00:00",
        "meta_object_name": "COSMOS 2251 DEB",
        "meta_object_id": "1993-036BAN",
        "meta_epoch": "2025-12-11T12:04:38.629632",
        "meta_mean_motion": 13.47792153,
        "meta_eccentricity": 0.04277143,
        "meta_inclination": 73.9683,
        "meta_ra_of_asc_node": 38.6892,
        "meta_arg_of_pericenter": 10.8049,
        "meta_mean_anomaly": 350.189,
        "meta_ephemeris_type": 0,
        "meta_classification_type": "U",
        "meta_norad_cat_id": 36439,
        "meta_element_set_no": 999,
        "meta_rev_at_epoch": 58596,
        "meta_bstar": 0.0014143946,
        "meta_mean_motion_dot": 1.502e-05,
        "meta_mean_motion_ddot": 0,
        "tle_line1": "1 36439U 93036BAN 25345.50322488  .00001502  00000+0  14144-2 0  9990",
        "tle_line2": "2 36439  73.9683  38.6892 0427714  10.8049 350.1890 13.47792153585967"
      },
      "geometry": {
        "type": "Point",
        "coordinates": [
          40.51798520492436,
          10.76823628557957
        ]
      }
    }
  ]
}